O3B MPOWER F1           
1 54755U 22174A   23215.05362591 -.00000020  00000+0  00000+0 0  9997
2 54755   0.0401  11.0624 0003525 196.1298  37.5451  5.00111913 12850
